NORAD_CAT_ID,OBJECT_NAME,OBJECT_TYPE,EPOCH,MEAN_MOTION,ECCENTRICITY,INCLINATION,RA_OF_ASC_NODE,ARG_OF_PERICENTER,MEAN_ANOMALY,BSTAR,MEAN_MOTION_DOT,MEAN_MOTION_DDOT,TLE_LINE0,TLE_LINE1,TLE_LINE2,SEMIMAJOR_AXIS,PERIOD,APOGEE,PERIGEE,DECAYED
56450.0,STARLINK-5970,PAYLOAD,2024-02-23 20:09:45,14.98330097,0.000274,69.9996,222.5325,269.7266,90.3579,1.7828e-05,1.2e-06,0.0,0 STARLINK-5970,1 56450U 23064C   24054.84010649  .00000120  00000-0  17828-4 0  9995,2 56450  69.9996 222.5325 0002740 269.7266  90.3579 14.98330097 44030,6950.193,96.107,573.962,570.153,0.0
56450.0,STARLINK-5970,PAYLOAD,2024-02-24 13:47:13,14.98329712,0.0002735,69.9996,220.6811,268.1123,91.9723,-2.5709e-05,-4e-06,0.0,0 STARLINK-5970,1 56450U 23064C   24055.57446759 -.00000400  00000-0 -25709-4 0  9991,2 56450  69.9996 220.6811 0002735 268.1123  91.9723 14.98329712 43789,6950.194,96.107,573.96,570.158,0.0
56450.0,STARLINK-5970,PAYLOAD,2024-02-24 16:59:30,14.9832953,0.0002737,69.9996,220.3445,268.286,91.7985,-2.6412e-05,-4.08e-06,0.0,0 STARLINK-5970,1 56450U 23064C   24055.70798771 -.00000408  00000-0 -26412-4 0  9990,2 56450  69.9996 220.3445 0002737 268.2860  91.7985 14.98329530 43809,6950.194,96.107,573.962,570.157,0.0
56450.0,STARLINK-5970,PAYLOAD,2024-02-25 04:12:26,14.98326685,0.0002756,69.9997,219.1662,269.2167,90.8676,-4.4986e-05,-6.3e-06,0.0,0 STARLINK-5970,1 56450U 23064C   24056.17531027 -.00000630  00000-0 -44986-4 0  9994,2 56450  69.9997 219.1662 0002756 269.2167  90.8676 14.98326685 44232,6950.203,96.107,573.984,570.153,0.0
56450.0,STARLINK-5970,PAYLOAD,2024-02-25 13:49:15,14.98324774,0.0002776,69.9995,218.1562,268.9985,91.0856,-4.305e-05,-6.07e-06,0.0,0 STARLINK-5970,1 56450U 23064C   24056.57587220 -.00000607  00000-0 -43050-4 0  9999,2 56450  69.9995 218.1562 0002776 268.9985  91.0856 14.98324774 43930,6950.209,96.107,574.003,570.145,0.0
56450.0,STARLINK-5970,PAYLOAD,2024-02-25 20:13:47,14.98326254,0.0002811,69.9996,217.483,268.432,91.6517,-3.9511e-05,-5.64e-06,0.0,0 STARLINK-5970,1 56450U 23064C   24056.84291170 -.00000564  00000-0 -39511-4 0  9994,2 56450  69.9996 217.4830 0002811 268.4320  91.6517 14.98326254 43978,6950.204,96.107,574.023,570.116,0.0
56450.0,STARLINK-5970,PAYLOAD,2024-02-26 04:14:27,14.9831982,0.0002794,69.9993,216.6406,261.2848,98.7995,0.00013786,1.552e-05,0.0,0 STARLINK-5970,1 56450U 23064C   24057.17671174  .00001552  00000-0  13786-3 0  9998,2 56450  69.9993 216.6406 0002794 261.2848  98.7995 14.98319820 44386,6950.224,96.108,574.031,570.147,0.0
56450.0,STARLINK-5970,PAYLOAD,2024-02-26 12:15:07,14.98330789,0.0002949,69.999,215.7987,268.7582,91.3239,7.5042e-05,8.03e-06,0.0,0 STARLINK-5970,1 56450U 23064C   24057.51050568  .00000803  00000-0  75042-4 0  9996,2 56450  69.9990 215.7987 0002949 268.7582  91.3239 14.98330789 44439,6950.19,96.107,574.105,570.006,0.0
56450.0,STARLINK-5970,PAYLOAD,2024-02-26 13:51:15,14.98331,0.0002951,69.9991,215.6303,268.7456,91.3365,7.6178e-05,8.16e-06,0.0,0 STARLINK-5970,1 56450U 23064C   24057.57726546  .00000816  00000-0  76178-4 0  9993,2 56450  69.9991 215.6303 0002951 268.7456  91.3365 14.98331000 44082,6950.19,96.107,574.106,570.004,0.0
56450.0,STARLINK-5970,PAYLOAD,2024-02-26 20:15:47,14.98335824,0.000295,69.9992,214.957,268.7032,91.3789,8.2273e-05,8.89e-06,0.0,0 STARLINK-5970,1 56450U 23064C   24057.84430173  .00000889  00000-0  82273-4 0  9994,2 56450  69.9992 214.9570 0002950 268.7032  91.3789 14.98335824 44123,6950.175,96.107,574.09,569.99,0.0
56450.0,STARLINK-5970,PAYLOAD,2024-02-27 12:17:09,14.98324044,0.0002943,69.9993,213.2738,268.764,91.3182,2.768e-05,2.37e-06,0.0,0 STARLINK-5970,1 56450U 23064C   24058.51191078  .00000237  00000-0  27680-4 0  9995,2 56450  69.9993 213.2738 0002943 268.7640  91.3182 14.98324044 44588,6950.211,96.107,574.122,570.031,0.0
56450.0,STARLINK-5970,PAYLOAD,2024-02-27 13:53:17,14.98324075,0.0002946,69.9993,213.1055,268.7863,91.2958,2.6976e-05,2.29e-06,0.0,0 STARLINK-5970,1 56450U 23064C   24058.57867096  .00000229  00000-0  26976-4 0  9999,2 56450  69.9993 213.1055 0002946 268.7863  91.2958 14.98324075 44235,6950.211,96.107,574.124,570.029,0.0
56450.0,STARLINK-5970,PAYLOAD,2024-02-27 20:17:49,14.98329316,0.000288,69.9995,212.4326,267.507,92.576,1.6634e-05,1.05e-06,0.0,0 STARLINK-5970,1 56450U 23064C   24058.84570830  .00000105  00000-0  16634-4 0  9999,2 56450  69.9995 212.4326 0002880 267.5070  92.5760 14.98329316 44276,6950.195,96.107,574.062,570.058,0.0
56450.0,STARLINK-5970,PAYLOAD,2024-02-28 12:19:09,14.98331389,0.0002957,69.9995,210.7495,270.0792,90.0028,-3.2161e-05,-4.77e-06,0.0,0 STARLINK-5970,1 56450U 23064C   24059.51330825 -.00000477  00000-0 -32161-4 0  9999,2 56450  69.9995 210.7495 0002957 270.0792  90.0028 14.98331389 44733,6950.189,96.107,574.109,569.998,0.0
56450.0,STARLINK-5970,PAYLOAD,2024-02-28 13:55:17,14.98331405,0.0002958,69.9995,210.5812,270.1285,89.9535,-2.9898e-05,-4.5e-06,0.0,0 STARLINK-5970,1 56450U 23064C   24059.58006809 -.00000450  00000-0 -29898-4 0  9992,2 56450  69.9995 210.5812 0002958 270.1285  89.9535 14.98331405 44383,6950.189,96.107,574.109,569.998,0.0
56450.0,STARLINK-5970,PAYLOAD,2024-02-28 20:19:50,14.98331793,0.0002798,70.0002,209.9092,264.5823,95.5017,2.0466e-07,-9.1e-07,0.0,0 STARLINK-5970,1 56450U 23064C   24059.84710650 -.00000091  00000-0  20466-6 0  9991,2 56450  70.0002 209.9092 0002798 264.5823  95.5017 14.98331793 44427,6950.187,96.107,573.997,570.108,0.0
56450.0,STARLINK-5970,PAYLOAD,2024-02-29 12:21:10,14.983263,0.0002335,69.9998,208.2254,257.743,102.3468,9.7241e-05,1.067e-05,0.0,0 STARLINK-5970,1 56450U 23064C   24060.51470618  .00001067  00000-0  97241-4 0  9990,2 56450  69.9998 208.2254 0002335 257.7430 102.3468 14.98326300 44880,6950.204,96.107,573.692,570.446,0.0
56450.0,STARLINK-5970,PAYLOAD,2024-02-29 13:57:18,14.98329392,0.0002638,69.9999,208.0571,259.656,100.4302,5.6917e-05,5.86e-06,0.0,0 STARLINK-5970,1 56450U 23064C   24060.58146524  .00000586  00000-0  56917-4 0  9993,2 56450  69.9999 208.0571 0002638 259.6560 100.4302 14.98329392 44534,6950.195,96.107,573.893,570.226,0.0
56450.0,STARLINK-5970,PAYLOAD,2024-02-29 18:45:42,14.98331542,0.0002887,70.0001,207.5525,266.9904,93.0925,5.0224e-05,5.06e-06,0.0,0 STARLINK-5970,1 56450U 23064C   24060.78174388  .00000506  00000-0  50224-4 0  9991,2 56450  70.0001 207.5525 0002887 266.9904  93.0925 14.98331542 44564,6950.188,96.107,574.06,570.047,0.0
56450.0,STARLINK-5970,PAYLOAD,2024-03-01 02:46:22,14.98342997,0.0002906,70.0002,206.7105,272.1315,87.9511,-0.00020558,-2.546e-05,0.0,0 STARLINK-5970,1 56450U 23064C   24061.11554335 -.00002546  00000-0 -20558-3 0  9997,2 56450  70.0002 206.7105 0002906 272.1315  87.9511 14.98342997 44971,6950.153,96.106,574.037,569.998,0.0
56450.0,STARLINK-5970,PAYLOAD,2024-03-01 13:59:19,14.98328722,0.0002851,70.0004,205.5328,269.1117,90.9715,-2.4997e-05,-3.91e-06,0.0,0 STARLINK-5970,1 56450U 23064C   24061.58286764 -.00000391  00000-0 -24997-4 0  9994,2 56450  70.0004 205.5328 0002851 269.1117  90.9715 14.98328722 44680,6950.197,96.107,574.043,570.08,0.0
56450.0,STARLINK-5970,PAYLOAD,2024-03-01 18:47:43,14.9832973,0.000286,70.0004,205.0276,270.5944,89.4887,-1.3472e-05,-2.54e-06,0.0,0 STARLINK-5970,1 56450U 23064C   24061.78314677 -.00000254  00000-0 -13472-4 0  9995,2 56450  70.0004 205.0276 0002860 270.5944  89.4887 14.98329730 44718,6950.194,96.107,574.046,570.071,0.0
56450.0,STARLINK-5970,PAYLOAD,2024-03-02 12:25:12,14.98329354,0.0002889,70.0005,203.1762,270.8674,89.2154,-3.6207e-05,-5.25e-06,0.0,0 STARLINK-5970,1 56450U 23064C   24062.51750734 -.00000525  00000-0 -36207-4 0  9997,2 56450  70.0005 203.1762 0002889 270.8674  89.2154 14.98329354 45181,6950.195,96.107,574.068,570.052,0.0
56450.0,STARLINK-5970,PAYLOAD,2024-03-02 14:01:20,14.98329386,0.0002889,70.0005,203.0079,270.8386,89.2442,-3.4559e-05,-5.05e-06,0.0,0 STARLINK-5970,1 56450U 23064C   24062.58426729 -.00000505  00000-0 -34559-4 0  9994,2 56450  70.0005 203.0079 0002889 270.8386  89.2442 14.98329386 44837,6950.195,96.107,574.068,570.052,0.0
56450.0,STARLINK-5970,PAYLOAD,2024-03-02 18:49:44,14.9833255,0.0002859,70.0005,202.5029,270.4367,89.6465,4.1822e-06,-4.3e-07,0.0,0 STARLINK-5970,1 56450U 23064C   24062.78454407 -.00000043  00000-0  41822-5 0  9998,2 56450  70.0005 202.5029 0002859 270.4367  89.6465 14.98332550 44867,6950.185,96.107,574.037,570.063,0.0
56450.0,STARLINK-5970,PAYLOAD,2024-03-03 12:27:13,14.9832804,0.0002976,70.0002,200.6508,270.9698,89.112,3.3429e-05,3.06e-06,0.0,0 STARLINK-5970,1 56450U 23064C   24063.51890566  .00000306  00000-0  33429-4 0  9994,2 56450  70.0002 200.6508 0002976 270.9698  89.1120 14.98328040 45332,6950.199,96.107,574.132,569.996,0.0
56450.0,STARLINK-5970,PAYLOAD,2024-03-03 18:51:45,14.9833245,0.0002954,70.0003,199.9769,269.479,90.6031,4.3474e-05,4.26e-06,0.0,0 STARLINK-5970,1 56450U 23064C   24063.78594233  .00000426  00000-0  43474-4 0  9999,2 56450  70.0003 199.9769 0002954 269.4790  90.6031 14.98332450 45017,6950.185,96.107,574.103,569.997,0.0
56450.0,STARLINK-5970,PAYLOAD,2024-03-04 10:53:05,14.98341592,0.0003037,70.0002,198.2937,269.0661,91.015,0.0001152,1.282e-05,0.0,0 STARLINK-5970,1 56450U 23064C   24064.45353124  .00001282  00000-0  11520-3 0  9993,2 56450  70.0002 198.2937 0003037 269.0661  91.0150 14.98341592 45475,6950.157,96.106,574.133,569.911,0.0
56450.0,STARLINK-5970,PAYLOAD,2024-03-04 14:05:21,14.98311991,0.0002767,70.0003,197.9572,268.3214,91.7628,0.00061925,7.3e-05,0.0,0 STARLINK-5970,1 56450U 23064C   24064.58705365  .00007300  00000-0  61925-3 0  9996,2 56450  70.0003 197.9572 0002767 268.3214  91.7628 14.98311991 45132,6950.249,96.108,574.037,570.19,0.0
56450.0,STARLINK-5970,PAYLOAD,2024-03-04 18:53:44,14.98346539,0.0002982,70.0006,197.4543,265.6635,94.4183,0.00015246,1.727e-05,0.0,0 STARLINK-5970,1 56450U 23064C   24064.78732407  .00001727  00000-0  15246-3 0  9997,2 56450  70.0006 197.4543 0002982 265.6635  94.4183 14.98346539 45169,6950.142,96.106,574.079,569.934,0.0
